{"geometry":{"coordinates":[-1.9026911,52.4796992],"type":"Point"},"properties":{"alt_name":"Brummagem","alt_name:ar":"برمنغهام;برمنغهام (إنجلترا)","ele":"140","is_in":"West Midlands, England, United Kingdom","is_in:continent":"Europe","is_in:country":"United Kingdom","is_in:country_code":"GB","is_in:county":"West Midlands","loc_name":"Brum","name":"Birmingham","name:am":"በርሚንግሃም","name:ar":"برمنهام","name:az":"Birmingem","name:be":"Бірмінгем","name:be-tarask":"Бірмінггэм","name:bg":"Бирмингам","name:bn":"বার্মিংহাম","name:el":"Μπέρμιγχαμ","name:en":"Birmingham","name:en:ipa":"/ˈbɜːrmɪŋəm/","name:fa":"بیرمنگام","name:gu":"બર્મિંગહામ","name:he":"ברמינגהאם","name:hi":"बर्मिंघम","name:hu":"Birmingham","name:hy":"Բիրմինգհեմ","name:ja":"バーミンガム","name:ka":"ბირმინგემი","name:kn":"ಬರ್ಮಿಂಗ್ಹ್ಯಾಮ್","name:ko":"버밍엄","name:la":"Birminghamia","name:lt":"Birmingamas","name:lv":"Birmingema","name:mk":"Бирмингем","name:ml":"ബിർമിങ്ഹാം","name:mr":"बर्मिंगहॅम","name:my":"ဘာမင်ဂမ်မြို့","name:oc":"Birmingham","name:pa":"ਬਰਮਿੰਘਮ","name:pt":"Birmingham","name:ru":"Бирмингем","name:sr":"Бирмингем","name:ta":"பர்மிங்காம் (ஐக்கிய இராச்சியம்)","name:te":"బర్మింగ్‌హామ్","name:th":"เบอร์มิงแฮม","name:ug":"Birmin'gxam","name:uk":"Бірмінгем","name:ur":"برمنگھم","name:yi":"בירמינגהאם","name:zh":"伯明翰","old_name":"Beormingahām","place":"city","population":"1036878","source:name:oc":"Lo Congrès","source:population":"Council tax bill 2012","wikidata":"Q2256","wikipedia":"en:Birmingham"},"type":"Feature"}