{"geometry":{"coordinates":[-1.6131572,54.9738474],"type":"Point"},"properties":{"alt_name":"Newcastle","alt_name:la":"Novum Castellum","alt_name:mk":"Њукасл","is_in":"UK, England, Northumberland, Tyne & Wear","is_in:continent":"Europe","is_in:country":"United Kingdom","is_in:county":"Tyne and Wear","is_in:historic_county":"Northumberland","name":"Newcastle upon Tyne","name:ar":"نيوكاسل أبون تاين","name:az":"Nyukasl apon Tayn","name:be":"Ньюкасл-апан-Тайн","name:bg":"Нюкасъл ъпон Тайн","name:bn":"নিউক্যাসল আপন ট্যাইন","name:el":"Νιούκασλ","name:fa":"نیوکاسل آپون تاین","name:fr":"Newcastle upon Tyne","name:gd":"An Caisteal Nuadh","name:he":"ניוקאסל","name:hu":"Newcastle","name:ja":"ニューカッスル・アポン・タイン","name:ka":"ნიუკასლ-აპონ-ტაინი","name:ko":"뉴캐슬어폰타인","name:la":"Novum Castellum super Tinam","name:lt":"Niukaslas prie Taino","name:lv":"Ņūkāsla pie Tainas","name:mk":"Њукасл на Тајн","name:mr":"न्यूकॅसल अपॉन टाईन","name:pa":"نیوکاسل","name:ru":"Ньюкасл-апон-Тайн","name:sr":"Њукасл на Тајну","name:ta":"டைன் ஆற்றங்கரை நியூ காசில்","name:th":"นิวคาสเซิลอะพอนไทน์","name:uk":"Ньюкасл-апон-Тайн","name:ur":"نیوکاسڵ","name:vi":"Newcastle trên sông Tyne","name:yi":"ניוקאסטל","name:zh":"紐卡素","place":"city","population":"289835","wikidata":"Q1425428","wikipedia":"en:Newcastle upon Tyne"},"type":"Feature"}